[{"OBJECT_NAME":"IRIDIUM 164","OBJECT_ID":"2018-061J","EPOCH":"2026-03-09T19:37:38.506656","MEAN_MOTION":14.34217471,"ECCENTRICITY":0.00023952,"INCLINATION":86.3912,"RA_OF_ASC_NODE":98.3356,"ARG_OF_PERICENTER":97.8473,"MEAN_ANOMALY":262.2995,"EPHEMERIS_TYPE":0,"CLASSIFICATION_TYPE":"U","NORAD_CAT_ID":43577,"ELEMENT_SET_NO":999,"REV_AT_EPOCH":39917,"BSTAR":-1.475216e-6,"MEAN_MOTION_DOT":1.6e-7,"MEAN_MOTION_DDOT":0},{"OBJECT_NAME":"SOICAL [CONE]","OBJECT_ID":"1969-082K","EPOCH":"2026-03-09T14:24:48.487680","MEAN_MOTION":14.31732793,"ECCENTRICITY":0.0012019,"INCLINATION":69.9923,"RA_OF_ASC_NODE":137.2884,"ARG_OF_PERICENTER":265.5688,"MEAN_ANOMALY":94.4063,"EPHEMERIS_TYPE":0,"CLASSIFICATION_TYPE":"U","NORAD_CAT_ID":4132,"ELEMENT_SET_NO":999,"REV_AT_EPOCH":90665,"BSTAR":0.00061226,"MEAN_MOTION_DOT":1.579e-5,"MEAN_MOTION_DDOT":0}]
